[{"OBJECT_NAME":"NORSAT 3","OBJECT_ID":"2021-034E","EPOCH":"2026-03-09T22:23:32.431200","MEAN_MOTION":15.04338407,"ECCENTRICITY":0.0005858,"INCLINATION":97.5427,"RA_OF_ASC_NODE":128.5959,"ARG_OF_PERICENTER":280.8366,"MEAN_ANOMALY":79.2201,"EPHEMERIS_TYPE":0,"CLASSIFICATION_TYPE":"U","NORAD_CAT_ID":48272,"ELEMENT_SET_NO":999,"REV_AT_EPOCH":26491,"BSTAR":0.00030361478,"MEAN_MOTION_DOT":4.174e-5,"MEAN_MOTION_DDOT":0},{"OBJECT_NAME":"STARLINK-5569","OBJECT_ID":"2023-013BA","EPOCH":"2026-03-09T00:36:29.578176","MEAN_MOTION":15.02537671,"ECCENTRICITY":0.00013622,"INCLINATION":43.0042,"RA_OF_ASC_NODE":316.5729,"ARG_OF_PERICENTER":264.2114,"MEAN_ANOMALY":95.8573,"EPHEMERIS_TYPE":0,"CLASSIFICATION_TYPE":"U","NORAD_CAT_ID":55379,"ELEMENT_SET_NO":999,"REV_AT_EPOCH":17146,"BSTAR":-3.791612e-6,"MEAN_MOTION_DOT":-2.55e-6,"MEAN_MOTION_DDOT":0}]
